GLOBALSTAR M075 [+]     
1 37192U 10054E   23327.61809213 -.00000086  00000+0  96452-4 0  9993
2 37192  51.9926 121.8408 0001087 101.2440 338.4867 12.62267713604194
GLOBALSTAR M073 [+]     
1 37193U 10054F   23327.63633782 -.00000093  00000+0  62680-4 0  9996
2 37193  52.0078  35.1657 0000525 124.2037  40.3713 12.62269395605650
GLOBALSTAR M083 [+]     
1 37739U 11033A   23327.39931441 -.00000086  00000+0  10153-3 0  9995
2 37739  51.9877 345.4006 0000522  69.7856  38.1364 12.62263030574646
GLOBALSTAR M088 [+]     
1 37740U 11033B   23327.30914038 -.00000092  00000+0  68294-4 0  9998
2 37740  51.9734 251.6481 0001063  65.4072 112.2020 12.62267763570173
GLOBALSTAR M091 [+]     
1 37741U 11033C   23327.85483160 -.00000084  00000+0  11308-3 0  9990
2 37741  51.9985 212.5204 0001326  74.6582   3.0734 12.62268823571034
GLOBALSTAR M085 [+]     
1 37742U 11033D   23327.84753012 -.00000077  00000+0  14905-3 0  9994
2 37742  51.9839 164.0861 0001330  87.1712  17.7346 12.62265473571547
GLOBALSTAR M081 [+]     
1 37743U 11033E   23327.87344667 -.00000065  00000+0  21744-3 0  9996
2 37743  51.9930 166.4417 0001399  93.5571   9.2149 12.62267245571694
GLOBALSTAR M089 [+]     
1 37744U 11033F   23327.75493985 -.00000098  00000+0  34323-4 0  9996
2 37744  51.9910 121.1352 0000943 119.6473 344.5035 12.62269713572528
